SCD 1                   
1 22490U 93009B   26198.88345421  .00000300  00000+0  31331-4 0  9996
2 22490  24.9706  18.0431 0042087 102.8494   6.8076 14.46129286765562
TECHSAT 1B (GO-32)      
1 25397U 98043D   26198.90100485  .00000006  00000+0  22605-4 0  9997
2 25397  99.0087 192.4369 0002259 110.8324 249.3096 14.24433664455703
SCD 2                   
1 25504U 98060A   26198.83948646  .00000255  00000+0  20561-4 0  9992
2 25504  24.9942 243.1293 0017006  87.0411  82.2974 14.45535243464762
DLR-TUBSAT              
1 25757U 99029B   26198.94952629 -.00000002  00000+0  11362-4 0  9996
2 25757  98.6712 195.4683 0013003 255.6191 104.3560 14.52433558437714
TERRA                   
1 25994U 99068A   26198.91099444  .00000158  00000+0  41180-4 0  9998
2 25994  97.9439 247.2365 0003512 117.4238 346.6126 14.61124864414091
MAROC-TUBSAT            
1 27004U 01056D   26198.44357691 -.00000043  00000+0  38696-5 0  9994
2 27004  99.8100  15.8757 0020572  66.5443 323.2177 13.70263593230334
AQUA                    
1 27424U 02022A   26198.90991753  .00000351  00000+0  79553-4 0  9995
2 27424  98.4298 168.8109 0001235 101.5647 282.8474 14.62130787287763
SHIYAN-1 (SY-1)         
1 28220U 04012A   26198.77385515  .00007142  00000+0  21639-3 0  9995
2 28220  97.8682 278.8456 0004133 262.8282  97.2489 15.34492099215785
AURA                    
1 28376U 04026A   26198.93469236  .00000352  00000+0  80875-4 0  9997
2 28376  98.3432 155.6463 0001357  93.6588 266.4768 14.61370045170707
IRS-P5 (CARTOSAT-1)     
1 28649U 05017A   26198.94741319  .00000724  00000+0  78278-4 0  9994
2 28649  97.5305 220.6167 0001220  50.6954 309.4373 14.91121099148401
SINAH 1                 
1 28893U 05043D   26198.94331919  .00000125  00000+0  33128-4 0  9995
2 28893  98.2898 333.4527 0014588 174.9648 185.1704 14.64176462105023
RESURS-DK 1             
1 29228U 06021A   26198.90437258  .00000894  00000+0  56144-4 0  9990
2 29228  69.9304 260.0312 0007256 268.0232  92.0103 15.13324459107227
ARIRANG-2 (KOMPSAT-2)   
1 29268U 06031A   26198.98411166  .00000401  00000+0  83711-4 0  9997
2 29268  97.8310  21.9414 0014029 341.8896 171.0333 14.64677528 65989
LAPAN-TUBSAT            
1 29709U 07001A   26198.96018255  .00000679  00000+0  84255-4 0  9996
2 29709  98.1351 198.8801 0013617  85.8084 274.4686 14.85979283 55724
HAIYANG-1B              
1 31113U 07010A   26198.90961432  .00000033  00000+0  28131-4 0  9991
2 31113  98.3516 179.5662 0014724 108.3115 251.9672 14.31033731  5032
COSMO-SKYMED 1          
1 31598U 07023A   26198.94547520  .00001588  00000+0  14243-3 0  9998
2 31598  97.8849  31.0617 0001644 100.9973 259.1434 14.97228097 34391
TERRASAR-X              
1 31698U 07026A   26188.47915537  .00000240  00000+0  14624-4 0  9994
2 31698  97.4461 195.8972 0001878  86.9540 273.1909 15.19153986 56300
WORLDVIEW-1 (WV-1)      
1 32060U 07041A   26198.94608212  .00003083  00000+0  12803-3 0  9991
2 32060  97.3907 318.2593 0001788 193.9547 166.1642 15.24576267 47564
YAOGAN-3                
1 32289U 07055A   26199.00149861  .00000271  00000+0  33149-4 0  9990
2 32289  97.8140 228.5748 0001478  77.8929 282.2455 14.90885954 10465
COSMO-SKYMED 2          
1 32376U 07059A   26198.94585380  .00000149  00000+0  25277-4 0  9990
2 32376  97.8896  22.0990 0001456  93.8789 266.2591 14.82151728  6569
RADARSAT-2              
1 32382U 07061A   26198.96493442 -.00000127  00000+0 -32405-4 0  9998
2 32382  98.5780 205.4582 0001306  85.0388 275.0943 14.29983362970356
CARTOSAT-2A             
1 32783U 08021A   26198.95919043  .00000380  00000+0  57750-4 0  9998
2 32783  97.7611 246.6151 0012232  18.8150 341.3512 14.79278274983352
HUANJING 1A (HJ-1A)     
1 33320U 08041A   26198.91253429  .00000746  00000+0  95446-4 0  9993
2 33320  97.6698 183.5665 0020119  41.3054 318.9678 14.84052423962969
HUANJING 1B (HJ-1B)     
1 33321U 08041B   26198.96318516 -.00000146  00000+0 -11360-4 0  9997
2 33321  97.6535 186.6934 0037952  82.5314 278.0210 14.83366433962979
GEOEYE 1                
1 33331U 08042A   26198.89393352  .00000168  00000+0  40610-4 0  9994
2 33331  98.1326 272.4582 0003755 337.2405  22.8631 14.64650563954648
THEOS                   
1 33396U 08049A   26198.96937124 -.00000200  00000+0 -73727-4 0  9995
2 33396  98.5552 255.2509 0001112  89.4356 270.6949 14.20136539922338
COSMO-SKYMED 3          
1 33412U 08054A   26198.95120198  .00002705  00000+0  18396-3 0  9994
2 33412  97.8244  58.0301 0015960 157.3808 202.8126 15.07128915961577
YAOGAN-4                
1 33446U 08061A   26198.79463138  .00000437  00000+0  60013-4 0  9999
2 33446  97.9303 132.0803 0013611 336.8738  23.1861 14.83253803950204
GOSAT (IBUKI)           
1 33492U 09002A   26198.88851750  .00000292  00000+0  60065-4 0  9993
2 33492  98.0915 309.5886 0001127  89.4645 270.6689 14.67541495935967
DEIMOS-1                
1 35681U 09041A   26198.91168506 -.00000162  00000+0 -16903-4 0  9992
2 35681  97.7436 354.8126 0002794  88.8393 271.3137 14.75263979911414
